CCSDS_OMM_VERS = 2.0
CREATION_DATE  = 
ORIGINATOR     = 

OBJECT_NAME    = STARLINK-36633
OBJECT_ID      = 2026-020R
CENTER_NAME    = EARTH
REF_FRAME      = TEME
TIME_SYSTEM    = UTC
MEAN_ELEMENT_THEORY = SGP/SGP4

EPOCH          = 2026-02-06T22:00:03.999744
MEAN_MOTION    = 15.91053675
ECCENTRICITY   = .00016486
INCLINATION    = 42.9996
RA_OF_ASC_NODE = 329.4300
ARG_OF_PERICENTER = 267.9100
MEAN_ANOMALY   = 202.4942

EPHEMERIS_TYPE = 0
CLASSIFICATION_TYPE = U
NORAD_CAT_ID   = 67632
ELEMENT_SET_NO = 999
REV_AT_EPOCH   = 244
BSTAR          = -.61356453E-2
MEAN_MOTION_DOT = -.1747899E-1
MEAN_MOTION_DDOT = 0

CCSDS_OMM_VERS = 2.0
CREATION_DATE  = 
ORIGINATOR     = 

OBJECT_NAME    = STARLINK-36637
OBJECT_ID      = 2026-020S
CENTER_NAME    = EARTH
REF_FRAME      = TEME
TIME_SYSTEM    = UTC
MEAN_ELEMENT_THEORY = SGP/SGP4

EPOCH          = 2026-02-06T22:00:03.999744
MEAN_MOTION    = 15.91185800
ECCENTRICITY   = .00015386
INCLINATION    = 42.9997
RA_OF_ASC_NODE = 329.4246
ARG_OF_PERICENTER = 265.2628
MEAN_ANOMALY   = 207.3417

EPHEMERIS_TYPE = 0
CLASSIFICATION_TYPE = U
NORAD_CAT_ID   = 67633
ELEMENT_SET_NO = 999
REV_AT_EPOCH   = 244
BSTAR          = -.60945526E-2
MEAN_MOTION_DOT = -.1996131E-1
MEAN_MOTION_DDOT = .10676565E-2

CCSDS_OMM_VERS = 2.0
CREATION_DATE  = 
ORIGINATOR     = 

OBJECT_NAME    = STARLINK-36617
OBJECT_ID      = 2026-020T
CENTER_NAME    = EARTH
REF_FRAME      = TEME
TIME_SYSTEM    = UTC
MEAN_ELEMENT_THEORY = SGP/SGP4

EPOCH          = 2026-02-06T22:00:03.999744
MEAN_MOTION    = 15.91335585
ECCENTRICITY   = .00015518
INCLINATION    = 42.9998
RA_OF_ASC_NODE = 329.4179
ARG_OF_PERICENTER = 270.5673
MEAN_ANOMALY   = 204.5901

EPHEMERIS_TYPE = 0
CLASSIFICATION_TYPE = U
NORAD_CAT_ID   = 67634
ELEMENT_SET_NO = 999
REV_AT_EPOCH   = 244
BSTAR          = -.6043795E-2
MEAN_MOTION_DOT = -.1994881E-1
MEAN_MOTION_DDOT = .10679854E-2

CCSDS_OMM_VERS = 2.0
CREATION_DATE  = 
ORIGINATOR     = 

OBJECT_NAME    = STARLINK-36627
OBJECT_ID      = 2026-020U
CENTER_NAME    = EARTH
REF_FRAME      = TEME
TIME_SYSTEM    = UTC
MEAN_ELEMENT_THEORY = SGP/SGP4

EPOCH          = 2026-02-06T22:00:03.999744
MEAN_MOTION    = 15.91830136
ECCENTRICITY   = .00014996
INCLINATION    = 42.9997
RA_OF_ASC_NODE = 329.3951
ARG_OF_PERICENTER = 266.3490
MEAN_ANOMALY   = 217.7915

EPHEMERIS_TYPE = 0
CLASSIFICATION_TYPE = U
NORAD_CAT_ID   = 67635
ELEMENT_SET_NO = 999
REV_AT_EPOCH   = 244
BSTAR          = -.57911837E-2
MEAN_MOTION_DOT = -.1961496E-1
MEAN_MOTION_DDOT = .10399457E-2

CCSDS_OMM_VERS = 2.0
CREATION_DATE  = 
ORIGINATOR     = 

OBJECT_NAME    = STARLINK-36624
OBJECT_ID      = 2026-020V
CENTER_NAME    = EARTH
REF_FRAME      = TEME
TIME_SYSTEM    = UTC
MEAN_ELEMENT_THEORY = SGP/SGP4

EPOCH          = 2026-02-06T22:00:03.999744
MEAN_MOTION    = 15.91721720
ECCENTRICITY   = .00015111
INCLINATION    = 42.9999
RA_OF_ASC_NODE = 329.4007
ARG_OF_PERICENTER = 270.2115
MEAN_ANOMALY   = 211.8849

EPHEMERIS_TYPE = 0
CLASSIFICATION_TYPE = U
NORAD_CAT_ID   = 67636
ELEMENT_SET_NO = 999
REV_AT_EPOCH   = 244
BSTAR          = -.58960175E-2
MEAN_MOTION_DOT = -.198549E-1
MEAN_MOTION_DDOT = .10626723E-2

CCSDS_OMM_VERS = 2.0
CREATION_DATE  = 
ORIGINATOR     = 

OBJECT_NAME    = STARLINK-36610
OBJECT_ID      = 2026-020W
CENTER_NAME    = EARTH
REF_FRAME      = TEME
TIME_SYSTEM    = UTC
MEAN_ELEMENT_THEORY = SGP/SGP4

EPOCH          = 2026-02-06T22:00:03.999744
MEAN_MOTION    = 15.92032647
ECCENTRICITY   = .00016048
INCLINATION    = 42.9999
RA_OF_ASC_NODE = 329.3876
ARG_OF_PERICENTER = 273.8203
MEAN_ANOMALY   = 213.3833

EPHEMERIS_TYPE = 0
CLASSIFICATION_TYPE = U
NORAD_CAT_ID   = 67637
ELEMENT_SET_NO = 999
REV_AT_EPOCH   = 244
BSTAR          = -.57363113E-2
MEAN_MOTION_DOT = -.1963478E-1
MEAN_MOTION_DDOT = .10440051E-2

CCSDS_OMM_VERS = 2.0
CREATION_DATE  = 
ORIGINATOR     = 

OBJECT_NAME    = STARLINK-36599
OBJECT_ID      = 2026-020X
CENTER_NAME    = EARTH
REF_FRAME      = TEME
TIME_SYSTEM    = UTC
MEAN_ELEMENT_THEORY = SGP/SGP4

EPOCH          = 2026-02-06T22:00:03.999744
MEAN_MOTION    = 15.92217268
ECCENTRICITY   = .0001504
INCLINATION    = 42.9999
RA_OF_ASC_NODE = 329.3804
ARG_OF_PERICENTER = 264.9248
MEAN_ANOMALY   = 225.1306

EPHEMERIS_TYPE = 0
CLASSIFICATION_TYPE = U
NORAD_CAT_ID   = 67638
ELEMENT_SET_NO = 999
REV_AT_EPOCH   = 244
BSTAR          = -.56670349E-2
MEAN_MOTION_DOT = -.195855E-1
MEAN_MOTION_DDOT = .10410368E-2

CCSDS_OMM_VERS = 2.0
CREATION_DATE  = 
ORIGINATOR     = 

OBJECT_NAME    = STARLINK-36595
OBJECT_ID      = 2026-020Y
CENTER_NAME    = EARTH
REF_FRAME      = TEME
TIME_SYSTEM    = UTC
MEAN_ELEMENT_THEORY = SGP/SGP4

EPOCH          = 2026-02-06T22:00:03.999744
MEAN_MOTION    = 15.92391085
ECCENTRICITY   = .00014427
INCLINATION    = 42.9998
RA_OF_ASC_NODE = 329.3734
ARG_OF_PERICENTER = 266.5497
MEAN_ANOMALY   = 226.2059

EPHEMERIS_TYPE = 0
CLASSIFICATION_TYPE = U
NORAD_CAT_ID   = 67639
ELEMENT_SET_NO = 999
REV_AT_EPOCH   = 244
BSTAR          = -.56292285E-2
MEAN_MOTION_DOT = -.1963144E-1
MEAN_MOTION_DDOT = .10474167E-2

CCSDS_OMM_VERS = 2.0
CREATION_DATE  = 
ORIGINATOR     = 

OBJECT_NAME    = STARLINK-36570
OBJECT_ID      = 2026-020Z
CENTER_NAME    = EARTH
REF_FRAME      = TEME
TIME_SYSTEM    = UTC
MEAN_ELEMENT_THEORY = SGP/SGP4

EPOCH          = 2026-02-06T22:00:03.999744
MEAN_MOTION    = 15.92498911
ECCENTRICITY   = .00014622
INCLINATION    = 42.9999
RA_OF_ASC_NODE = 329.3681
ARG_OF_PERICENTER = 265.7944
MEAN_ANOMALY   = 229.0034

EPHEMERIS_TYPE = 0
CLASSIFICATION_TYPE = U
NORAD_CAT_ID   = 67640
ELEMENT_SET_NO = 999
REV_AT_EPOCH   = 244
BSTAR          = -.54933361E-2
MEAN_MOTION_DOT = -.1927056E-1
MEAN_MOTION_DDOT = .10128796E-2

CCSDS_OMM_VERS = 2.0
CREATION_DATE  = 
ORIGINATOR     = 

OBJECT_NAME    = STARLINK-36514
OBJECT_ID      = 2026-020AA
CENTER_NAME    = EARTH
REF_FRAME      = TEME
TIME_SYSTEM    = UTC
MEAN_ELEMENT_THEORY = SGP/SGP4

EPOCH          = 2026-02-06T22:00:03.999744
MEAN_MOTION    = 15.92871422
ECCENTRICITY   = .00015125
INCLINATION    = 42.9998
RA_OF_ASC_NODE = 329.3536
ARG_OF_PERICENTER = 265.0854
MEAN_ANOMALY   = 235.4336

EPHEMERIS_TYPE = 0
CLASSIFICATION_TYPE = U
NORAD_CAT_ID   = 67641
ELEMENT_SET_NO = 999
REV_AT_EPOCH   = 244
BSTAR          = -.54181231E-2
MEAN_MOTION_DOT = -.1938039E-1
MEAN_MOTION_DDOT = .10275E-2

CCSDS_OMM_VERS = 2.0
CREATION_DATE  = 
ORIGINATOR     = 

OBJECT_NAME    = STARLINK-36556
OBJECT_ID      = 2026-020AB
CENTER_NAME    = EARTH
REF_FRAME      = TEME
TIME_SYSTEM    = UTC
MEAN_ELEMENT_THEORY = SGP/SGP4

EPOCH          = 2026-02-06T22:00:03.999744
MEAN_MOTION    = 15.93007017
ECCENTRICITY   = .00015173
INCLINATION    = 42.9997
RA_OF_ASC_NODE = 329.3478
ARG_OF_PERICENTER = 268.5107
MEAN_ANOMALY   = 234.1807

EPHEMERIS_TYPE = 0
CLASSIFICATION_TYPE = U
NORAD_CAT_ID   = 67642
ELEMENT_SET_NO = 999
REV_AT_EPOCH   = 244
BSTAR          = -.54175747E-2
MEAN_MOTION_DOT = -.195154E-1
MEAN_MOTION_DDOT = .10423204E-2

CCSDS_OMM_VERS = 2.0
CREATION_DATE  = 
ORIGINATOR     = 

OBJECT_NAME    = STARLINK-36533
OBJECT_ID      = 2026-020AC
CENTER_NAME    = EARTH
REF_FRAME      = TEME
TIME_SYSTEM    = UTC
MEAN_ELEMENT_THEORY = SGP/SGP4

EPOCH          = 2026-02-06T22:00:03.999744
MEAN_MOTION    = 15.92666701
ECCENTRICITY   = .0001502
INCLINATION    = 42.9996
RA_OF_ASC_NODE = 329.3608
ARG_OF_PERICENTER = 265.8580
MEAN_ANOMALY   = 231.7163

EPHEMERIS_TYPE = 0
CLASSIFICATION_TYPE = U
NORAD_CAT_ID   = 67643
ELEMENT_SET_NO = 999
REV_AT_EPOCH   = 244
BSTAR          = -.5319853E-2
MEAN_MOTION_DOT = -.1883249E-1
MEAN_MOTION_DDOT = .97205814E-3

