STARLINK-36633          
1 67632U 26020R   26037.91671296 -.01747899  00000+0 -61356-2 0  9992
2 67632  42.9996 329.4300 0001648 267.9100 202.4942 15.91053675  2445
STARLINK-36637          
1 67633U 26020S   26037.91671296 -.01996131  10677-2 -60946-2 0  9996
2 67633  42.9997 329.4246 0001538 265.2628 207.3417 15.91185800  2447
STARLINK-36617          
1 67634U 26020T   26037.91671296 -.01994881  10680-2 -60438-2 0  9997
2 67634  42.9998 329.4179 0001551 270.5673 204.5901 15.91335585  2442
STARLINK-36627          
1 67635U 26020U   26037.91671296 -.01961496  10399-2 -57912-2 0  9994
2 67635  42.9997 329.3951 0001499 266.3490 217.7915 15.91830136  2443
STARLINK-36624          
1 67636U 26020V   26037.91671296 -.01985490  10627-2 -58960-2 0  9993
2 67636  42.9999 329.4007 0001511 270.2115 211.8849 15.91721720  2441
STARLINK-36610          
1 67637U 26020W   26037.91671296 -.01963478  10440-2 -57363-2 0  9995
2 67637  42.9999 329.3876 0001604 273.8203 213.3833 15.92032647  2449
STARLINK-36599          
1 67638U 26020X   26037.91671296 -.01958550  10410-2 -56670-2 0  9998
2 67638  42.9999 329.3804 0001504 264.9248 225.1306 15.92217268  2440
STARLINK-36595          
1 67639U 26020Y   26037.91671296 -.01963144  10474-2 -56292-2 0  9994
2 67639  42.9998 329.3734 0001442 266.5497 226.2059 15.92391085  2444
STARLINK-36570          
1 67640U 26020Z   26037.91671296 -.01927056  10129-2 -54933-2 0  9995
2 67640  42.9999 329.3681 0001462 265.7944 229.0034 15.92498911  2448
STARLINK-36514          
1 67641U 26020AA  26037.91671296 -.01938039  10275-2 -54181-2 0  9996
2 67641  42.9998 329.3536 0001512 265.0854 235.4336 15.92871422  2444
STARLINK-36556          
1 67642U 26020AB  26037.91671296 -.01951540  10423-2 -54176-2 0  9998
2 67642  42.9997 329.3478 0001517 268.5107 234.1807 15.93007017  2444
STARLINK-36533          
1 67643U 26020AC  26037.91671296 -.01883249  97206-3 -53199-2 0  9998
2 67643  42.9996 329.3608 0001502 265.8580 231.7163 15.92666701  2446
